[
    {
        "Altitude(m)": 610405.339329147,
        "Argument of Periapsis(deg)": 0.0,
        "Eccentricity": 0.0,
        "Inclination(deg)": 60.0,
        "Latitude(deg)": 52.111316536011074,
        "Longitude(deg)": 52.47733313442236,
        "Mean Anomaly(deg)": 114.54549999999999,
        "RAAN(deg)": 20.0,
        "Satellite Name": "Test1 95",
        "Satellite Number": 95,
        "Semi-Major Axis(m)": 6980739.136638005,
        "Time(s)": 0
    },
    {
        "Altitude(m)": 610321.912680631,
        "Argument of Periapsis(deg)": 0.00010418945913296404,
        "Eccentricity": 0.0,
        "Inclination(deg)": 60.0,
        "Latitude(deg)": 51.74603240123884,
        "Longitude(deg)": 53.24622883685964,
        "Mean Anomaly(deg)": 115.16560614546184,
        "RAAN(deg)": 19.99957995086026,
        "Satellite Name": "Test1 95",
        "Satellite Number": 95,
        "Semi-Major Axis(m)": 6980739.136638005,
        "Time(s)": 10
    },
    {
        "Altitude(m)": 610237.1218714277,
        "Argument of Periapsis(deg)": 0.0002083789182659281,
        "Eccentricity": 0.0,
        "Inclination(deg)": 60.0,
        "Latitude(deg)": 51.3752291679161,
        "Longitude(deg)": 54.002071974513804,
        "Mean Anomaly(deg)": 115.78571229092368,
        "RAAN(deg)": 19.999159901720517,
        "Satellite Name": "Test1 95",
        "Satellite Number": 95,
        "Semi-Major Axis(m)": 6980739.136638005,
        "Time(s)": 20
    },
    {
        "Altitude(m)": 610151.0170821683,
        "Argument of Periapsis(deg)": 0.00031256837739889213,
        "Eccentricity": 0.0,
        "Inclination(deg)": 60.0,
        "Latitude(deg)": 50.99906542116814,
        "Longitude(deg)": 54.74505567463298,
        "Mean Anomaly(deg)": 116.4058184363855,
        "RAAN(deg)": 19.99873985258077,
        "Satellite Name": "Test1 95",
        "Satellite Number": 95,
        "Semi-Major Axis(m)": 6980739.136638005,
        "Time(s)": 30
    },
    {
        "Altitude(m)": 610063.649355995,
        "Argument of Periapsis(deg)": 0.0004167578365318562,
        "Eccentricity": 0.0,
        "Inclination(deg)": 60.0,
        "Latitude(deg)": 50.61769599219302,
        "Longitude(deg)": 55.47538076642971,
        "Mean Anomaly(deg)": 117.02592458184733,
        "RAAN(deg)": 19.998319803441028,
        "Satellite Name": "Test1 95",
        "Satellite Number": 95,
        "Semi-Major Axis(m)": 6980739.136638005,
        "Time(s)": 40
    },
    {
        "Altitude(m)": 609975.0705739416,
        "Argument of Periapsis(deg)": 0.0005209472956648203,
        "Eccentricity": 0.0,
        "Inclination(deg)": 60.0,
        "Latitude(deg)": 50.23127193312607,
        "Longitude(deg)": 56.19325372242478,
        "Mean Anomaly(deg)": 117.64603072730915,
        "RAAN(deg)": 19.997899754301287,
        "Satellite Name": "Test1 95",
        "Satellite Number": 95,
        "Semi-Major Axis(m)": 6980739.136638005,
        "Time(s)": 50
    },
    {
        "Altitude(m)": 609885.3334298674,
        "Argument of Periapsis(deg)": 0.0006251367547977843,
        "Eccentricity": 0.0,
        "Inclination(deg)": 60.0,
        "Latitude(deg)": 49.83994050656767,
        "Longitude(deg)": 56.898886183449314,
        "Mean Anomaly(deg)": 118.26613687277099,
        "RAAN(deg)": 19.997479705161545,
        "Satellite Name": "Test1 95",
        "Satellite Number": 95,
        "Semi-Major Axis(m)": 6980739.136638005,
        "Time(s)": 60
    },
    {
        "Altitude(m)": 609794.491404983,
        "Argument of Periapsis(deg)": 0.0007293262139307483,
        "Eccentricity": 0.0,
        "Inclination(deg)": 60.0,
        "Latitude(deg)": 49.443845188342294,
        "Longitude(deg)": 57.592494552904974,
        "Mean Anomaly(deg)": 118.8862430182328,
        "RAAN(deg)": 19.9970596560218,
        "Satellite Name": "Test1 95",
        "Satellite Number": 95,
        "Semi-Major Axis(m)": 6980739.136638005,
        "Time(s)": 70
    },
    {
        "Altitude(m)": 609702.5987419351,
        "Argument of Periapsis(deg)": 0.0008335156730637124,
        "Eccentricity": 0.0,
        "Inclination(deg)": 60.0,
        "Latitude(deg)": 49.04312568213,
        "Longitude(deg)": 58.274298145469764,
        "Mean Anomaly(deg)": 119.50634916369464,
        "RAAN(deg)": 19.99663960688206,
        "Satellite Name": "Test1 95",
        "Satellite Number": 95,
        "Semi-Major Axis(m)": 6980739.136638005,
        "Time(s)": 80
    },
    {
        "Altitude(m)": 609609.7104185454,
        "Argument of Periapsis(deg)": 0.0009377051321966765,
        "Eccentricity": 0.0,
        "Inclination(deg)": 60.0,
        "Latitude(deg)": 48.637917944692525,
        "Longitude(deg)": 58.944518913732786,
        "Mean Anomaly(deg)": 120.12645530915646,
        "RAAN(deg)": 19.996219557742315,
        "Satellite Name": "Test1 95",
        "Satellite Number": 95,
        "Semi-Major Axis(m)": 6980739.136638005,
        "Time(s)": 90
    },
    {
        "Altitude(m)": 609515.8821211051,
        "Argument of Periapsis(deg)": 0.0010418945913296407,
        "Eccentricity": 0.0,
        "Inclination(deg)": 60.0,
        "Latitude(deg)": 48.22835422048978,
        "Longitude(deg)": 59.603381237356764,
        "Mean Anomaly(deg)": 120.74656145461832,
        "RAAN(deg)": 19.995799508602573,
        "Satellite Name": "Test1 95",
        "Satellite Number": 95,
        "Semi-Major Axis(m)": 6980739.136638005,
        "Time(s)": 100
    },
    {
        "Altitude(m)": 609421.1702173272,
        "Argument of Periapsis(deg)": 0.0011460840504626045,
        "Eccentricity": 0.0,
        "Inclination(deg)": 60.0,
        "Latitude(deg)": 47.81456308456125,
        "Longitude(deg)": 60.251110259171746,
        "Mean Anomaly(deg)": 121.36666760008015,
        "RAAN(deg)": 19.99537945946283,
        "Satellite Name": "Test1 95",
        "Satellite Number": 95,
        "Semi-Major Axis(m)": 6980739.136638005,
        "Time(s)": 110
    },
    {
        "Altitude(m)": 609325.6317289267,
        "Argument of Periapsis(deg)": 0.0012502735095955685,
        "Eccentricity": 0.0,
        "Inclination(deg)": 60.0,
        "Latitude(deg)": 47.396669492630835,
        "Longitude(deg)": 60.88793179110085,
        "Mean Anomaly(deg)": 121.98677374554197,
        "RAAN(deg)": 19.99495941032309,
        "Satellite Name": "Test1 95",
        "Satellite Number": 95,
        "Semi-Major Axis(m)": 6980739.136638005,
        "Time(s)": 120
    },
    {
        "Altitude(m)": 609229.324303845,
        "Argument of Periapsis(deg)": 0.0013544629687285324,
        "Eccentricity": 0.0,
        "Inclination(deg)": 60.0,
        "Latitude(deg)": 46.97479483746597,
        "Longitude(deg)": 61.51407227409984,
        "Mean Anomaly(deg)": 122.6068798910038,
        "RAAN(deg)": 19.994539361183342,
        "Satellite Name": "Test1 95",
        "Satellite Number": 95,
        "Semi-Major Axis(m)": 6980739.136638005,
        "Time(s)": 130
    },
    {
        "Altitude(m)": 609132.3061881355,
        "Argument of Periapsis(deg)": 0.0014586524278614966,
        "Eccentricity": 0.0,
        "Inclination(deg)": 60.0,
        "Latitude(deg)": 46.549057010597345,
        "Longitude(deg)": 62.12975727625655,
        "Mean Anomaly(deg)": 123.2269860364656,
        "RAAN(deg)": 19.9941193120436,
        "Satellite Name": "Test1 95",
        "Satellite Number": 95,
        "Semi-Major Axis(m)": 6980739.136638005,
        "Time(s)": 140
    },
    {
        "Altitude(m)": 609034.6361975158,
        "Argument of Periapsis(deg)": 0.0015628418869944607,
        "Eccentricity": 0.0,
        "Inclination(deg)": 60.0,
        "Latitude(deg)": 46.119570468583184,
        "Longitude(deg)": 62.735211551812824,
        "Mean Anomaly(deg)": 123.84709218192745,
        "RAAN(deg)": 19.99369926290386,
        "Satellite Name": "Test1 95",
        "Satellite Number": 95,
        "Semi-Major Axis(m)": 6980739.136638005,
        "Time(s)": 150
    },
    {
        "Altitude(m)": 608936.3736886133,
        "Argument of Periapsis(deg)": 0.0016670313461274247,
        "Eccentricity": 0.0,
        "Inclination(deg)": 60.0,
        "Latitude(deg)": 45.68644630306802,
        "Longitude(deg)": 63.330659145271994,
        "Mean Anomaly(deg)": 124.46719832738931,
        "RAAN(deg)": 19.99327921376412,
        "Satellite Name": "Test1 95",
        "Satellite Number": 95,
        "Semi-Major Axis(m)": 6980739.136638005,
        "Time(s)": 160
    },
    {
        "Altitude(m)": 608837.5785299102,
        "Argument of Periapsis(deg)": 0.0017712208052603888,
        "Eccentricity": 0.0,
        "Inclination(deg)": 60.0,
        "Latitude(deg)": 45.24979231395084,
        "Longitude(deg)": 63.916322024805496,
        "Mean Anomaly(deg)": 125.08730447285112,
        "RAAN(deg)": 19.992859164624374,
        "Satellite Name": "Test1 95",
        "Satellite Number": 95,
        "Semi-Major Axis(m)": 6980739.136638005,
        "Time(s)": 170
    },
    {
        "Altitude(m)": 608738.3110723731,
        "Argument of Periapsis(deg)": 0.001875410264393353,
        "Eccentricity": 0.0,
        "Inclination(deg)": 60.0,
        "Latitude(deg)": 44.80971308504769,
        "Longitude(deg)": 64.49242026786862,
        "Mean Anomaly(deg)": 125.70741061831295,
        "RAAN(deg)": 19.99243911548463,
        "Satellite Name": "Test1 95",
        "Satellite Number": 95,
        "Semi-Major Axis(m)": 6980739.136638005,
        "Time(s)": 180
    },
    {
        "Altitude(m)": 608638.6321198472,
        "Argument of Periapsis(deg)": 0.0019795997235263173,
        "Eccentricity": 0.0,
        "Inclination(deg)": 60.0,
        "Latitude(deg)": 44.36631006168652,
        "Longitude(deg)": 65.05917228339811,
        "Mean Anomaly(deg)": 126.32751676377477,
        "RAAN(deg)": 19.992019066344888,
        "Satellite Name": "Test1 95",
        "Satellite Number": 95,
        "Semi-Major Axis(m)": 6980739.136638005,
        "Time(s)": 190
    }
]